M2 PATHFINDER           
1 45727U 20037E   26196.50814969  .00000617  00000+0  48206-4 0  9990
2 45727  97.8142  28.0603 0012891  61.5732 298.6791 15.04791762329752
NETSAT-4                
1 46504U 20068U   26196.50491915  .00011843  00000+0  25515-3 0  9990
2 46504  97.8600 207.0407 0004818 192.2589 167.8542 15.44764492320147
NETSAT-3                
1 46505U 20068V   26195.94911260  .00010624  00000+0  23832-3 0  9994
2 46505  97.8649 204.6225 0003766 212.3316 147.7700 15.43602426319963
NETSAT-1                
1 46506U 20068W   26196.42787856  .00006752  00000+0  19991-3 0  9999
2 46506  97.8750 199.1310 0002464 260.7560  99.3403 15.35248484319639
NETSAT-2                
1 46507U 20068X   26196.43864627  .00014174  00000+0  28095-3 0  9995
2 46507  97.8610 206.9725 0002170 207.0405 153.0731 15.47169932320107
GREENCUBE (IO-117)      
1 53109U 22080E   26196.19885268 -.00000003  00000+0  00000+0 0  9993
2 53109  70.1411 288.5050 0009069 283.3508  76.6141  6.42583355 93867
SITRO-AIS 5 (KATYS)     
1 57176U 23091L   26196.58917325  .00006954  00000+0  24125-3 0  9995
2 57176  97.5046 260.7687 0010622  11.1358 349.0115 15.30070648168681
SITRO-AIS 6 (CHIRKIN)   
1 57192U 23091AC  26196.56907572  .00005724  00000+0  22218-3 0  9999
2 57192  97.5053 259.7145 0011118  15.2660 344.8911 15.26442570168618
SITRO-AIS 8 (ANOKHIN)   
1 57193U 23091AD  26196.62076023  .00008333  00000+0  26471-3 0  9999
2 57193  97.5043 262.5076 0009482   6.6044 353.5321 15.32865349168807
SITRO-AIS 7 (FARTUSHNIY)
1 57194U 23091AE  26196.57814956  .00005414  00000+0  21241-3 0  9996
2 57194  97.5049 259.5336 0011103  16.5322 343.6276 15.26115953168600
SITRO-AIS 10 (BURDAEV)  
1 57199U 23091AK  26196.59498286  .00012197  00000+0  31132-3 0  9993
2 57199  97.5069 267.8356 0004823 339.6152  20.4900 15.39638022169136
SITRO-AIS 9 (SHCHUKIN)  
1 57201U 23091AM  26196.63065327  .00011990  00000+0  31124-3 0  9999
2 57201  97.5067 267.5794 0005099 339.8733  20.2310 15.39123184169124
SITRO-AIS 12 (SMIRENNIY)
1 57204U 23091AQ  26196.61585484  .00012207  00000+0  31380-3 0  9997
2 57204  97.5081 268.0493 0004670 332.3030  27.7966 15.39419411169149
SITRO-AIS 11 (SHEFFER)  
1 57208U 23091AU  26196.62125258  .00012509  00000+0  31689-3 0  9998
2 57208  97.5080 268.3196 0004553 331.3953  28.7042 15.39862779169165
SITRO-AIS 25            
1 59066U 24039R   26196.58174750  .00001874  00000+0  14791-3 0  9999
2 59066  95.3892 254.6046 0142809 228.1507 130.7459 14.93644071128964
SITRO-AIS 26            
1 59067U 24039S   26196.58703315  .00001734  00000+0  13776-3 0  9992
2 59067  95.3892 254.4999 0143142 228.7542 130.1280 14.93435899128957
SITRO-AIS 27            
1 59068U 24039T   26196.61625418  .00001355  00000+0  10733-3 0  9993
2 59068  95.3898 254.8050 0142211 227.1648 131.7558 14.93860058128989
SITRO-AIS 28            
1 59071U 24039U   26196.59306447  .00001687  00000+0  13276-3 0  9995
2 59071  95.3896 254.8379 0142110 227.0925 131.8303 14.93894422128981
GRBBETA                 
1 60237U 24128C   26196.29220616  .00001683  00000+0  12540-3 0  9999
2 60237  61.9898 117.6465 0037024 140.6791 219.7001 15.06808761110504
OOV-CUBE (TUBSAT-30)    
1 60240U 24128F   26196.26704743  .00000973  00000+0  86744-4 0  9997
2 60240  61.9937 127.6518 0041102 140.0470 220.3658 15.02873933110338
ROBUSTA-3A (MEDITERRAN*)
1 60243U 24128J   26196.17847194  .00003998  00000+0  24093-3 0  9996
2 60243  61.9866 109.2343 0038124 133.8167 226.6092 15.11986976110655
LASARSAT                
1 62391U 24247Q   26195.93235013  .00021592  00000+0  40881-3 0  9991
2 62391  44.9739 106.1046 0007354 164.5391 195.5725 15.48033197 87612
CROCUBE                 
1 62394U 24247T   26196.08738532  .00025934  00000+0  45370-3 0  9997
2 62394  44.9722 102.0802 0007544 171.5148 188.5872 15.50189566 87677
FORESAIL-1 PRIME        
1 66778U 25276DS  26196.19422958  .00002417  00000+0  11894-3 0  9999
2 66778  97.4193 268.9548 0002896  44.4716 315.6751 15.18938200 34655
KNACKSAT-2              
1 67683U 98067XZ  26196.25870215  .00034050  00000+0  38021-3 0  9992
2 67683  51.6274 153.0107 0007992 328.5700  31.4815 15.62408935 24669
